LEMUR-2-MYRA            
1 66787U 25276EC  26190.60174605  .00004214  00000+0  33740-3 0  9993
2 66787  97.5217 260.7505 0018574  71.1590 289.1646 15.00547888 33570
LEMUR-2 FIKRETDENGIZ    
1 67363U 26004A   26190.72270687  .00002433  00000+0  26761-3 0  9990
2 67363  97.8024 188.9369 0010439  71.1066 289.1282 14.88491309 26635
TWILIGHT-1 OBJECT B     
1 67364U 26004B   26191.22800616  .00001206  00000+0  13801-3 0  9996
2 67364  97.8071 189.4384 0010013  60.0405 300.1805 14.87783017 26716
LEMUR-2-MARIO-SOUSA     
1 67365U 26004C   26191.30826014  .00002461  00000+0  26918-3 0  9993
2 67365  97.7996 189.5087 0010049  70.7060 289.5243 14.88703210 26733
LEMUR-2-SONNENBLUME     
1 67367U 26004E   26191.24300419  .00001487  00000+0  16609-3 0  9997
2 67367  97.7993 189.4195 0009607  72.2436 287.9829 14.88438367 26722
LEMUR-2-WOBLER          
1 67368U 26004F   26191.23309648  .00002149  00000+0  23594-3 0  9997
2 67368  97.8048 189.5553 0009778  63.8201 296.4020 14.88677606 26728
LEMUR-2-GRAM-E-SUE      
1 67370U 26004H   26190.41824335  .00001831  00000+0  20248-3 0  9994
2 67370  97.7979 188.6239 0008810  76.6994 283.5205 14.88573884 26603
LEMUR-2-KATIE           
1 67387U 26004AA  26190.71733719  .00002879  00000+0  30258-3 0  9995
2 67387  97.8041 189.4514 0003888  45.7601 314.3936 14.90219671 26663
LEMUR-2-HCS-BAZUS       
1 67388U 26004AB  26190.71575423  .00001407  00000+0  15072-3 0  9995
2 67388  97.8032 189.4291 0003373  46.2274 313.9222 14.90243096 26668
